<gpx xmlns="http://www.topografix.com/GPX/1/1" xmlns:xsi="http://www.w3.org/2001/XMLSchema-instance" xsi:schemaLocation="http://www.topografix.com/GPX/1/1 http://www.topografix.com/GPX/1/1/gpx.xsd" version="1.1" creator="togpx"><trk><name>Test Japan Route</name><desc>name=Test Japan Route</desc><trkseg><trkpt lat="35.249770000000005" lon="139.1559"><ele>17.77</ele><time>1970-01-01T00:00:00.000Z</time></trkpt><trkpt lat="35.248745003180865" lon="139.16091499655306"><ele>14.38</ele><time>1970-01-01T00:00:00.000Z</time></trkpt><trkpt lat="35.249050000000004" lon="139.1618"><ele>13.860000000000001</ele><time>1970-01-01T00:00:00.000Z</time></trkpt><trkpt lat="35.27837" lon="139.20486000000002"><ele>10.71</ele><time>1970-01-01T00:00:00.000Z</time></trkpt><trkpt lat="35.27848" lon="139.20506"><ele>10.620000000000001</ele><time>1970-01-01T00:00:00.000Z</time></trkpt><trkpt lat="35.303186673247396" lon="139.2712233247495"><ele>22.6</ele><time>1970-01-01T00:00:00.000Z</time></trkpt><trkpt lat="35.30357" lon="139.27212"><ele>22.28</ele><time>1970-01-01T00:00:00.000Z</time></trkpt><trkpt lat="35.307" lon="139.3129"><ele>13</ele><time>1970-01-01T00:00:00.000Z</time></trkpt><trkpt lat="35.306810000000006" lon="139.3128"><ele>13.330000000000002</ele><time>1970-01-01T00:00:00.000Z</time></trkpt><trkpt lat="35.32517" lon="139.33173000000002"><ele>7.34</ele><time>1970-01-01T00:00:00.000Z</time></trkpt><trkpt lat="35.32555" lon="139.33200000000002"><ele>7.540000000000001</ele><time>1970-01-01T00:00:00.000Z</time></trkpt><trkpt lat="35.32943000547818" lon="139.34669332943596"><ele>9.64</ele><time>1970-01-01T00:00:00.000Z</time></trkpt><trkpt lat="35.329620000000006" lon="139.34751"><ele>9.840000000000002</ele><time>1970-01-01T00:00:00.000Z</time></trkpt><trkpt lat="35.331225003957385" lon="139.35818999863346"><ele>8.68</ele><time>1970-01-01T00:00:00.000Z</time></trkpt><trkpt lat="35.331340000000004" lon="139.35917"><ele>8.42</ele><time>1970-01-01T00:00:00.000Z</time></trkpt><trkpt lat="35.31483" lon="139.36502000000002"><ele>0.65</ele><time>1970-01-01T00:00:00.000Z</time></trkpt><trkpt lat="35.31481" lon="139.36514000000003"><ele>1.6600000000000001</ele><time>1970-01-01T00:00:00.000Z</time></trkpt><trkpt lat="35.31588" lon="139.36216000000002"><ele>7.430000000000001</ele><time>1970-01-01T00:00:00.000Z</time></trkpt><trkpt lat="35.31669" lon="139.3621"><ele>12.59</ele><time>1970-01-01T00:00:00.000Z</time></trkpt><trkpt lat="35.3202" lon="139.37602"><ele>7.29</ele><time>1970-01-01T00:00:00.000Z</time></trkpt><trkpt lat="35.32023" lon="139.37641000000002"><ele>6.710000000000001</ele><time>1970-01-01T00:00:00.000Z</time></trkpt><trkpt lat="35.316460000000006" lon="139.38317"><ele>8.100000000000001</ele><time>1970-01-01T00:00:00.000Z</time></trkpt><trkpt lat="35.31642" lon="139.38340000000002"><ele>8.55</ele><time>1970-01-01T00:00:00.000Z</time></trkpt><trkpt lat="35.31991" lon="139.44079000000002"><ele>6.7700000000000005</ele><time>1970-01-01T00:00:00.000Z</time></trkpt><trkpt lat="35.319900000000004" lon="139.44139"><ele>6.86</ele><time>1970-01-01T00:00:00.000Z</time></trkpt><trkpt lat="35.31716" lon="139.46776"><ele>5.37</ele><time>1970-01-01T00:00:00.000Z</time></trkpt><trkpt lat="35.31716" lon="139.46777"><ele>3</ele><time>1970-01-01T00:00:00.000Z</time></trkpt><trkpt lat="35.30828" lon="139.48699000000002"><ele>10.43</ele><time>1970-01-01T00:00:00.000Z</time></trkpt><trkpt lat="35.308330000000005" lon="139.48713"><ele>10.950000000000001</ele><time>1970-01-01T00:00:00.000Z</time></trkpt><trkpt lat="35.33797500000287" lon="139.49035499927876"><ele>10.200000000000001</ele><time>1970-01-01T00:00:00.000Z</time></trkpt><trkpt lat="35.338750000000005" lon="139.49043"><ele>10.620000000000001</ele><time>1970-01-01T00:00:00.000Z</time></trkpt><trkpt lat="35.34479" lon="139.48715"><ele>12.610000000000001</ele><time>1970-01-01T00:00:00.000Z</time></trkpt><trkpt lat="35.345600000000005" lon="139.48674"><ele>13.61</ele><time>1970-01-01T00:00:00.000Z</time></trkpt><trkpt lat="35.3763" lon="139.50480000000002"><ele>50.81</ele><time>1970-01-01T00:00:00.000Z</time></trkpt><trkpt lat="35.376760000000004" lon="139.50514"><ele>51.21000000000001</ele><time>1970-01-01T00:00:00.000Z</time></trkpt><trkpt lat="35.393280000000004" lon="139.52896"><ele>16.900000000000002</ele><time>1970-01-01T00:00:00.000Z</time></trkpt><trkpt lat="35.39332" lon="139.52908000000002"><ele>16.830000000000002</ele><time>1970-01-01T00:00:00.000Z</time></trkpt><trkpt lat="35.4144" lon="139.54243000000002"><ele>23.87</ele><time>1970-01-01T00:00:00.000Z</time></trkpt><trkpt lat="35.414840000000005" lon="139.54296000000002"><ele>24.240000000000002</ele><time>1970-01-01T00:00:00.000Z</time></trkpt><trkpt lat="35.420840000000005" lon="139.55326000000002"><ele>23.200000000000003</ele><time>1970-01-01T00:00:00.000Z</time></trkpt><trkpt lat="35.4209" lon="139.55325000000002"><ele>23.200000000000003</ele><time>1970-01-01T00:00:00.000Z</time></trkpt><trkpt lat="35.420480000000005" lon="139.56221000000002"><ele>26.69</ele><time>1970-01-01T00:00:00.000Z</time></trkpt><trkpt lat="35.42056" lon="139.56242"><ele>26.98</ele><time>1970-01-01T00:00:00.000Z</time></trkpt><trkpt lat="35.428960000000004" lon="139.57318"><ele>48.03</ele><time>1970-01-01T00:00:00.000Z</time></trkpt><trkpt lat="35.42913" lon="139.57339000000002"><ele>48.620000000000005</ele><time>1970-01-01T00:00:00.000Z</time></trkpt><trkpt lat="35.44485" lon="139.57781"><ele>24.970000000000002</ele><time>1970-01-01T00:00:00.000Z</time></trkpt><trkpt lat="35.445" lon="139.57804000000002"><ele>24.970000000000002</ele><time>1970-01-01T00:00:00.000Z</time></trkpt><trkpt lat="35.443740000000005" lon="139.59629"><ele>11.430000000000001</ele><time>1970-01-01T00:00:00.000Z</time></trkpt><trkpt lat="35.44377" lon="139.59642000000002"><ele>11.240000000000002</ele><time>1970-01-01T00:00:00.000Z</time></trkpt><trkpt lat="35.45375751042553" lon="139.61156248557415"><ele>6.7</ele><time>1970-01-01T00:00:00.000Z</time></trkpt><trkpt lat="35.45418" lon="139.61248"><ele>6.7</ele><time>1970-01-01T00:00:00.000Z</time></trkpt><trkpt lat="35.445820000000005" lon="139.61417"><ele>27.32</ele><time>1970-01-01T00:00:00.000Z</time></trkpt><trkpt lat="35.445370000000004" lon="139.61447"><ele>29.460000000000004</ele><time>1970-01-01T00:00:00.000Z</time></trkpt><trkpt lat="35.43518" lon="139.62652"><ele>5.960000000000001</ele><time>1970-01-01T00:00:00.000Z</time></trkpt><trkpt lat="35.434740000000005" lon="139.62681"><ele>5.960000000000001</ele><time>1970-01-01T00:00:00.000Z</time></trkpt><trkpt lat="35.44142" lon="139.64006"><ele>6.050000000000001</ele><time>1970-01-01T00:00:00.000Z</time></trkpt><trkpt lat="35.44153" lon="139.64019000000002"><ele>6.050000000000001</ele><time>1970-01-01T00:00:00.000Z</time></trkpt><trkpt lat="35.4482" lon="139.64482"><ele>4.49</ele><time>1970-01-01T00:00:00.000Z</time></trkpt><trkpt lat="35.448260000000005" lon="139.64489"><ele>4.44</ele><time>1970-01-01T00:00:00.000Z</time></trkpt><trkpt lat="35.45353" lon="139.63128"><ele>7.98</ele><time>1970-01-01T00:00:00.000Z</time></trkpt><trkpt lat="35.45337" lon="139.63098000000002"><ele>8.15</ele><time>1970-01-01T00:00:00.000Z</time></trkpt><trkpt lat="35.460370000000005" lon="139.62638"><ele>7.410000000000001</ele><time>1970-01-01T00:00:00.000Z</time></trkpt><trkpt lat="35.460390000000004" lon="139.62634"><ele>7.42</ele><time>1970-01-01T00:00:00.000Z</time></trkpt><trkpt lat="35.467830000000006" lon="139.62852"><ele>5.51</ele><time>1970-01-01T00:00:00.000Z</time></trkpt><trkpt lat="35.468090000000004" lon="139.62869"><ele>5.42</ele><time>1970-01-01T00:00:00.000Z</time></trkpt><trkpt lat="35.48287000105133" lon="139.64367999768527"><ele>10.15</ele><time>1970-01-01T00:00:00.000Z</time></trkpt><trkpt lat="35.483230000000006" lon="139.64419"><ele>10.17</ele><time>1970-01-01T00:00:00.000Z</time></trkpt><trkpt lat="35.493100000000005" lon="139.66637"><ele>6.32</ele><time>1970-01-01T00:00:00.000Z</time></trkpt><trkpt lat="35.4934" lon="139.66678000000002"><ele>6.260000000000001</ele><time>1970-01-01T00:00:00.000Z</time></trkpt><trkpt lat="35.519560000000006" lon="139.69007000000002"><ele>5.010000000000001</ele><time>1970-01-01T00:00:00.000Z</time></trkpt><trkpt lat="35.519870000000004" lon="139.69036"><ele>4.9</ele><time>1970-01-01T00:00:00.000Z</time></trkpt><trkpt lat="35.52649" lon="139.70234000000002"><ele>5.430000000000001</ele><time>1970-01-01T00:00:00.000Z</time></trkpt><trkpt lat="35.52651" lon="139.70254"><ele>5.37</ele><time>1970-01-01T00:00:00.000Z</time></trkpt><trkpt lat="35.55202000067645" lon="139.7161100016589"><ele>9.370000000000001</ele><time>1970-01-01T00:00:00.000Z</time></trkpt><trkpt lat="35.55234" lon="139.7157"><ele>6.580000000000001</ele><time>1970-01-01T00:00:00.000Z</time></trkpt><trkpt lat="35.572900000000004" lon="139.73355"><ele>7.61</ele><time>1970-01-01T00:00:00.000Z</time></trkpt><trkpt lat="35.57316" lon="139.73373"><ele>7.57</ele><time>1970-01-01T00:00:00.000Z</time></trkpt><trkpt lat="35.59474" lon="139.73658"><ele>8.100000000000001</ele><time>1970-01-01T00:00:00.000Z</time></trkpt><trkpt lat="35.594750000000005" lon="139.73652"><ele>8.100000000000001</ele><time>1970-01-01T00:00:00.000Z</time></trkpt><trkpt lat="35.60638" lon="139.7431"><ele>8.88</ele><time>1970-01-01T00:00:00.000Z</time></trkpt><trkpt lat="35.60665" lon="139.74319"><ele>8.89</ele><time>1970-01-01T00:00:00.000Z</time></trkpt><trkpt lat="35.630160000000004" lon="139.73745000000002"><ele>11.74</ele><time>1970-01-01T00:00:00.000Z</time></trkpt><trkpt lat="35.63027" lon="139.73745000000002"><ele>11.57</ele><time>1970-01-01T00:00:00.000Z</time></trkpt><trkpt lat="35.654770000000006" lon="139.74514000000002"><ele>12.860000000000001</ele><time>1970-01-01T00:00:00.000Z</time></trkpt><trkpt lat="35.65494" lon="139.74513000000002"><ele>12.96</ele><time>1970-01-01T00:00:00.000Z</time></trkpt><trkpt lat="35.65722" lon="139.73329"><ele>18.590000000000003</ele><time>1970-01-01T00:00:00.000Z</time></trkpt><trkpt lat="35.65744" lon="139.733"><ele>18.740000000000002</ele><time>1970-01-01T00:00:00.000Z</time></trkpt><trkpt lat="35.675810000000006" lon="139.71768"><ele>36.32000000000001</ele><time>1970-01-01T00:00:00.000Z</time></trkpt></trkseg></trk></gpx>